OBJECT_NAME,OBJECT_ID,EPOCH,MEAN_MOTION,ECCENTRICITY,INCLINATION,RA_OF_ASC_NODE,ARG_OF_PERICENTER,MEAN_ANOMALY,EPHEMERIS_TYPE,CLASSIFICATION_TYPE,NORAD_CAT_ID,ELEMENT_SET_NO,REV_AT_EPOCH,BSTAR,MEAN_MOTION_DOT,MEAN_MOTION_DDOT,RMS,DATA_SOURCE
STARLINK-11072 [DTC],2024-002A,2025-10-07T18:37:42.000038,15.69711844,0.000124,53.1566,307.828,95.2059,154.446,0,C,58705,280,1,-0.00015226,-0.00018472,0,0.352,SpaceX-E
STARLINK-11075 [DTC],2024-002B,2025-10-07T18:46:42.000038,15.69722662,0.0001208,53.1567,307.8591,83.2111,174.0274,0,C,58706,280,1,-0.00021964,-0.00026649,0,0.274,SpaceX-E
STARLINK-11077 [DTC],2024-002C,2025-10-07T18:41:41.999971,15.69663859,0.0001197,53.1566,307.9131,88.9119,121.0433,0,C,58707,280,1,0.00012336,0.00014957,0,0.304,SpaceX-E
STARLINK-11079 [DTC],2024-002D,2025-10-07T18:38:42.000000,15.69719808,0.0001209,53.1566,307.7638,85.3727,195.934,0,C,58708,280,1,-0.00017463,-0.0002119,0,0.403,SpaceX-E
STARLINK-11076 [DTC],2024-002E,2025-10-07T18:44:42.000029,15.69715335,0.0001184,53.1565,307.6923,87.5931,245.0114,0,C,58709,280,1,-0.00015677,-0.00019021,0,0.354,SpaceX-E
STARLINK-11078 [DTC],2024-002F,2025-10-07T18:48:41.999962,15.69715472,0.0001223,53.1565,307.6226,87.2347,288.8078,0,C,58710,280,1,-0.0001325,-0.00016079,0,0.321,SpaceX-E
STARLINK-31031,2024-002G,2025-10-07T19:07:42.000010,15.30181764,0.0001271,53.1582,220.2342,88.8195,319.6449,0,C,58711,280,1,-5.5156e-07,-1.636e-07,0,0.388,SpaceX-E
STARLINK-31029,2024-002H,2025-10-07T18:59:41.999971,15.30184811,0.000129,53.16,219.9636,89.0043,80.0573,0,C,58712,280,1,-4.1041e-05,-1.2174e-05,0,0.316,SpaceX-E
STARLINK-30973,2024-002J,2025-10-07T18:58:42.000010,15.30307951,0.0001246,53.1601,220.0357,86.4222,43.8979,0,C,58713,280,1,-0.0039819,-0.0011814,0,0.967,SpaceX-E
STARLINK-31100,2024-002K,2025-10-07T19:04:42.000038,15.30186676,0.0001296,53.16,220.0492,78.0324,57.8269,0,C,58714,280,1,-0.0002358,-6.9938e-05,0,0.404,SpaceX-E
STARLINK-31102,2024-002L,2025-10-07T19:03:41.999990,15.30193859,0.000118,53.1579,220.313,96.5897,261.6647,0,C,58715,280,1,-0.00039703,-0.00011777,0,0.41,SpaceX-E
STARLINK-31098,2024-002M,2025-10-07T19:06:41.999962,15.30183727,0.0001225,53.1599,220.0644,83.0699,48.8107,0,C,58716,280,1,-9.4833e-05,-2.8128e-05,0,0.437,SpaceX-E
STARLINK-31093,2024-002N,2025-10-07T19:02:42.000029,15.30187073,0.000132,53.1591,220.1723,79.5808,356.2569,0,C,58717,280,1,-0.00017661,-5.2386e-05,0,0.377,SpaceX-E
STARLINK-31097,2024-002P,2025-10-07T19:00:42.000019,15.30216926,0.0001369,53.1595,220.1287,78.4949,7.1328,0,C,58718,280,1,-0.00097869,-0.00029035,0,0.595,SpaceX-E
STARLINK-31051,2024-002Q,2025-10-07T19:04:42.000038,15.30145304,0.000122,53.159,220.1719,83.6483,348.2802,0,C,58719,280,1,0.00080531,0.00023877,0,0.268,SpaceX-E
STARLINK-31027,2024-002R,2025-10-07T19:02:42.000029,15.30193867,9.88e-05,53.1594,219.7689,86.1084,187.4972,0,C,58720,280,1,-0.00030617,-9.0822e-05,0,0.439,SpaceX-E
STARLINK-30972,2024-002S,2025-10-07T19:00:42.000019,15.30179233,0.0001389,53.1601,220.0361,86.5737,45.6154,0,C,58721,280,1,2.941e-05,8.723e-06,0,0.312,SpaceX-E
STARLINK-31040,2024-002T,2025-10-07T19:04:42.000038,15.30188012,0.0001196,53.1583,220.2042,85.2273,329.2055,0,C,58722,280,1,-0.00022754,-6.7489e-05,0,0.448,SpaceX-E
STARLINK-31033,2024-002U,2025-10-07T19:01:41.999981,15.30211164,0.0001256,53.1595,220.1102,83.9699,11.3076,0,C,58723,280,1,-0.00083478,-0.00024764,0,0.475,SpaceX-E
STARLINK-30893,2024-002V,2025-10-07T18:59:41.999971,15.30164792,0.0001096,53.1575,220.3671,93.1713,232.3178,0,C,58724,280,1,0.00056264,0.00016688,0,0.298,SpaceX-E
STARLINK-30856,2024-002W,2025-10-07T19:00:42.000019,15.30171722,0.0001488,53.1576,220.3687,92.099,231.4121,0,C,58725,280,1,0.00029875,8.8612e-05,0,0.369,SpaceX-E
STARLINK-31115,2024-005B,2025-10-07T19:04:42.000038,15.02555063,0.0001358,43.0029,332.0201,265.8023,208.6864,0,C,58729,280,1,-0.00036874,-4.9994e-05,0,0.363,SpaceX-E
STARLINK-31180,2024-005E,2025-10-07T19:02:42.000029,15.02552569,0.0001352,43.0029,332.3827,263.5575,59.1764,0,C,58732,280,1,-0.0011112,-0.00015061,0,0.362,SpaceX-E
STARLINK-31164,2024-005F,2025-10-07T18:58:42.000010,15.02558207,0.0001335,43.0033,332.8597,268.9138,200.436,0,C,58733,280,1,-0.0018864,-0.00025564,0,0.424,SpaceX-E
STARLINK-31152,2024-005G,2025-10-07T19:13:42.000038,15.02548927,0.000136,43.0033,332.7597,267.886,275.9007,0,C,58734,280,1,-0.00079526,-0.00010779,0,0.359,SpaceX-E
STARLINK-31157,2024-005H,2025-10-07T18:58:42.000010,15.0254772,0.0001381,43.003,332.7718,266.3736,239.046,0,C,58735,280,1,-0.0013795,-0.00018693,0,0.449,SpaceX-E
STARLINK-31076,2024-005J,2025-10-07T19:06:41.999962,15.02554769,0.0001388,43.0032,332.6986,268.7181,284.7631,0,C,58736,280,1,-0.00032834,-4.4516e-05,0,0.35,SpaceX-E
STARLINK-31101,2024-005K,2025-10-07T18:58:42.000010,15.02548831,0.0001342,43.0032,332.6411,264.9467,294.5639,0,C,58737,280,1,-0.00088387,-0.00011979,0,0.383,SpaceX-E
STARLINK-31108,2024-005L,2025-10-07T19:05:42.000000,15.02546971,0.0001356,43.0032,332.6586,266.4995,301.2997,0,C,58738,280,1,-0.00095311,-0.00012917,0,0.394,SpaceX-E
STARLINK-31042,2024-005M,2025-10-07T19:03:41.999990,15.02562943,0.0001365,43.0031,332.5782,269.3201,326.9483,0,C,58739,280,1,-0.00032907,-4.4624e-05,0,0.363,SpaceX-E
STARLINK-31159,2024-005N,2025-10-07T19:05:42.000000,15.0255277,0.0001327,43.0032,332.5276,266.3538,355.5232,0,C,58740,280,1,-0.0002351,-3.1874e-05,0,0.364,SpaceX-E
STARLINK-31148,2024-005P,2025-10-07T19:04:42.000038,15.02485839,0.0001344,43.0031,332.507,268.8057,7.2698,0,C,58741,280,1,0.0031393,0.00042538,0,0.333,SpaceX-E
STARLINK-31151,2024-005Q,2025-10-07T19:06:41.999962,15.02549794,0.0001357,43.0031,332.4557,267.309,34.4036,0,C,58742,280,1,-0.0011783,-0.00015969,0,0.39,SpaceX-E
STARLINK-31156,2024-005R,2025-10-07T18:57:41.999962,15.0252155,0.0001085,43.0031,332.4462,268.387,17.5267,0,C,58743,280,1,0.00031898,4.3219e-05,0,0.261,SpaceX-E
STARLINK-31167,2024-005S,2025-10-07T18:59:41.999971,15.27651301,0.0001544,43.0041,217.7926,268.1389,313.6946,0,C,58744,280,1,-0.0026309,-0.0007264,0,0.824,SpaceX-E
STARLINK-31176,2024-005T,2025-10-07T19:02:42.000029,15.02497709,0.0001129,43.0029,332.3395,282.9797,57.9026,0,C,58745,280,1,0.00056148,7.6034e-05,0,0.238,SpaceX-E
STARLINK-31181,2024-005U,2025-10-07T19:01:41.999981,15.27663857,0.0001494,42.9998,210.9967,255.8583,278.7764,0,C,58746,280,1,-0.0031032,-0.00085677,0,0.849,SpaceX-E
STARLINK-31183,2024-005V,2025-10-07T19:03:41.999990,15.02553106,0.0001381,43.0027,332.2502,262.8328,117.7551,0,C,58747,280,1,-0.0013815,-0.00018723,0,0.426,SpaceX-E
STARLINK-31165,2024-005W,2025-10-07T19:04:42.000038,15.0254722,0.0001393,43.0027,332.2876,265.7079,100.6138,0,C,58748,280,1,-0.0010048,-0.00013618,0,0.382,SpaceX-E
STARLINK-31160,2024-005X,2025-10-07T18:58:42.000010,15.02551857,0.0001385,43.0029,332.1141,265.3069,132.5926,0,C,58749,280,1,-0.0012717,-0.00017235,0,0.412,SpaceX-E
STARLINK-31179,2024-005Y,2025-10-07T18:52:41.999981,15.02548389,0.0001409,43.0027,332.2458,264.6285,92.6105,0,C,58750,280,1,-0.00060111,-8.1477e-05,0,0.325,SpaceX-E
STARLINK-31127,2024-011A,2025-10-07T18:59:41.999971,15.30217581,0.00015,53.1593,3.9166,82.382,159.5311,0,C,58765,280,1,-0.0011345,-0.00033653,0,0.513,SpaceX-E
STARLINK-31114,2024-011B,2025-10-07T19:04:42.000038,15.30176254,0.0001379,53.1599,1.8896,87.9003,123.6691,0,C,58766,280,1,0.00063256,0.0001877,0,0.292,SpaceX-E
STARLINK-31140,2024-011C,2025-10-07T19:00:42.000019,15.30203594,0.0001079,53.1592,3.8431,93.3312,187.2971,0,C,58767,280,1,-0.00044161,-0.00013102,0,0.418,SpaceX-E
STARLINK-31145,2024-011D,2025-10-07T19:25:42.000010,15.20352178,0.0002825,53.1612,10.8552,27.2139,313.3627,0,C,58768,280,1,0.0047538,0.0010528,0,0.247,SpaceX-E
STARLINK-31146,2024-011E,2025-10-07T19:01:41.999981,15.30209242,0.0001155,53.1592,3.8055,94.8136,207.1039,0,C,58769,280,1,-0.00076433,-0.00022674,0,0.47,SpaceX-E
STARLINK-31143,2024-011F,2025-10-07T19:06:41.999962,15.30212153,0.0001115,53.1591,3.7543,82.4104,256.0839,0,C,58770,280,1,-0.00078863,-0.00023397,0,0.484,SpaceX-E
STARLINK-31135,2024-011G,2025-10-07T19:05:42.000000,15.30219957,0.0001316,53.1594,1.7698,85.2316,188.3496,0,C,58771,280,1,-0.0010631,-0.00031539,0,0.489,SpaceX-E
STARLINK-31136,2024-011H,2025-10-07T19:06:41.999962,15.30227545,0.0001274,53.1592,3.8549,97.5147,188.6236,0,C,58772,280,1,-0.0012042,-0.00035731,0,0.507,SpaceX-E
STARLINK-31073,2024-011J,2025-10-07T19:08:41.999971,15.30222191,0.0001193,53.1592,3.9212,87.2456,171.6664,0,C,58773,280,1,-0.001297,-0.00038472,0,0.535,SpaceX-E
STARLINK-31122,2024-011K,2025-10-07T19:00:42.000019,15.30219534,0.0001198,53.1592,4.0114,93.8503,99.5304,0,C,58774,280,1,-0.00099257,-0.00029449,0,0.58,SpaceX-E
STARLINK-31123,2024-011L,2025-10-07T19:02:42.000029,15.30226678,0.0001232,53.1592,3.7074,82.7901,269.4783,0,C,58775,280,1,-0.0013104,-0.00038875,0,0.579,SpaceX-E
STARLINK-31117,2024-011M,2025-10-07T19:01:41.999981,15.30220665,0.0001288,53.16,4.0842,85.6205,70.8887,0,C,58776,280,1,-0.0011722,-0.00034775,0,0.515,SpaceX-E
STARLINK-31132,2024-011N,2025-10-07T19:16:42.000010,15.30189073,0.0001332,53.1576,273.6789,96.0682,186.3822,0,C,58777,280,1,1.4406e-05,4.274e-06,0,0.361,SpaceX-E
STARLINK-31120,2024-011P,2025-10-07T18:58:42.000010,15.30216456,0.0001348,53.1605,4.2261,82.7291,352.4953,0,C,58778,280,1,-0.00094403,-0.00028007,0,0.471,SpaceX-E
STARLINK-31142,2024-011Q,2025-10-07T19:05:42.000000,15.30219207,0.0001333,53.16,4.0474,87.0417,96.4002,0,C,58779,280,1,-0.0010444,-0.00030983,0,0.588,SpaceX-E
STARLINK-31099,2024-011S,2025-10-07T19:05:42.000000,15.3022235,0.0001374,53.1598,4.013,98.7028,102.1934,0,C,58781,280,1,-0.0011074,-0.00032856,0,0.605,SpaceX-E
STARLINK-31060,2024-011T,2025-10-07T19:24:41.999962,15.46881879,0.0007896,53.1556,232.0816,120.8939,276.0452,0,C,58782,280,1,0.0027782,0.0014314,0,0.266,SpaceX-E
STARLINK-31047,2024-011U,2025-10-07T19:02:42.000029,15.30211299,0.0001316,53.1605,348.3186,81.8536,276.7832,0,C,58783,280,1,-0.00077119,-0.00022879,0,0.379,SpaceX-E
